OBJECT_NAME,OBJECT_ID,EPOCH,MEAN_MOTION,ECCENTRICITY,INCLINATION,RA_OF_ASC_NODE,ARG_OF_PERICENTER,MEAN_ANOMALY,EPHEMERIS_TYPE,CLASSIFICATION_TYPE,NORAD_CAT_ID,ELEMENT_SET_NO,REV_AT_EPOCH,BSTAR,MEAN_MOTION_DOT,MEAN_MOTION_DDOT
IRIDIUM 154,2018-061F,2026-06-05T02:12:18.454464,14.34217485,.00020424,86.3969,61.8635,86.2963,273.8467,0,U,43574,999,41167,.25557968E-4,.91E-6,0
IRIDIUM 163,2018-061G,2026-06-04T03:58:50.353248,14.34218549,.00023559,86.3968,62.1661,84.7398,275.4066,0,U,43575,999,41151,.27859029E-4,.98E-6,0
IRIDIUM 156,2018-061H,2026-06-05T06:09:46.536768,14.34217912,.00021647,86.3966,61.7176,79.9500,280.1940,0,U,43576,999,41166,.75093516E-4,.23E-5,0
IRIDIUM 164,2018-061J,2026-06-04T17:59:06.285120,14.34216843,.0002081,86.3967,61.9699,89.7067,270.4367,0,U,43577,999,41163,.7615E-4,.233E-5,0
IRIDIUM 159,2018-061K,2026-06-04T17:13:26.510016,14.34217350,.00021897,86.3963,61.9200,85.6924,274.4522,0,U,43578,999,41159,-.4842836E-5,.6E-7,0
IRIDIUM 180,2019-002A,2026-06-05T06:36:26.969760,14.34217710,.00022422,86.3973,358.5783,89.0380,271.1073,0,U,43922,999,38728,.2334591E-5,.26E-6,0
IRIDIUM 176,2019-002B,2026-06-04T02:37:13.623744,14.72250537,.0002067,86.6094,359.0116,84.8735,275.2718,0,U,43923,999,39732,.14303584E-3,.926E-5,0
IRIDIUM 168,2019-002C,2026-06-05T06:27:18.969120,14.34217315,.00020732,86.3973,358.6583,89.8467,270.2966,0,U,43924,999,38726,-.10440247E-4,-.9E-7,0
IRIDIUM 173,2019-002D,2026-06-05T06:09:02.711232,14.34219150,.00022335,86.3971,358.5521,86.2879,273.8572,0,U,43925,999,38724,.49475665E-4,.158E-5,0
IRIDIUM 169,2019-002E,2026-06-05T01:55:10.516512,14.38608778,.00022791,86.4236,30.2551,69.9805,290.1639,0,U,43926,999,38848,.10166616E-3,.331E-5,0
IRIDIUM 172,2019-002F,2026-06-05T00:58:30.970272,14.34217661,.00022804,86.3973,358.6507,89.5609,270.5848,0,U,43927,999,38722,.6977181E-5,.39E-6,0
IRIDIUM 175,2019-002G,2026-06-05T03:29:49.536672,14.43605730,.00010583,86.4504,295.5558,243.5193,116.5900,0,U,43928,999,39724,.96821982E-4,.348E-5,0
IRIDIUM 171,2019-002H,2026-06-05T02:11:34.916640,14.34217525,.00019118,86.3978,358.9340,86.1136,274.0279,0,U,43929,999,38722,-.149272E-6,.19E-6,0
IRIDIUM 170,2019-002J,2026-06-04T02:46:08.019840,14.72248600,.00023666,86.6099,359.0117,87.6012,272.5476,0,U,43930,999,39733,.35948254E-4,.251E-5,0
IRIDIUM 167,2019-002K,2026-06-05T07:03:50.886144,14.34217605,.0001887,86.3974,358.5667,84.6711,275.4700,0,U,43931,999,38725,-.678839E-6,.18E-6,0
IRIDIUM 181,2023-068S,2026-06-04T16:42:57.245760,14.43307636,.0002262,86.4503,62.0112,88.7980,271.3480,0,U,56726,999,16063,.1066E-3,.379E-5,0
IRIDIUM 177,2023-068T,2026-06-05T00:27:25.053408,14.80230899,.00024352,86.1958,334.5722,86.4963,273.6537,0,U,56727,999,16456,.60813159E-4,.489E-5,0
IRIDIUM 174,2023-068U,2026-06-04T02:28:20.007840,14.72251410,.00024854,86.6101,359.1625,89.3509,270.7993,0,U,56728,999,16409,-.621144E-5,-.14E-6,0
IRIDIUM 178,2023-068V,2026-06-05T01:49:06.273984,14.80245362,.00024952,86.6547,30.4218,88.9380,271.2128,0,U,56729,999,16457,.13718201E-3,.1069E-4,0
IRIDIUM 179,2023-068W,2026-06-04T15:57:19.342944,14.80241824,.00023364,86.6785,39.5356,85.6761,274.4728,0,U,56730,999,16451,.15277467E-3,.1187E-4,0
